CCSDS_OMM_VERS = 2.0
CREATION_DATE  = 
ORIGINATOR     = 

OBJECT_NAME    = STARLINK-36495
OBJECT_ID      = 2026-002G
CENTER_NAME    = EARTH
REF_FRAME      = TEME
TIME_SYSTEM    = UTC
MEAN_ELEMENT_THEORY = SGP/SGP4

EPOCH          = 2026-01-14T06:00:02.000160
MEAN_MOTION    = 15.90900944
ECCENTRICITY   = .00019487
INCLINATION    = 42.9980
RA_OF_ASC_NODE = 280.4747
ARG_OF_PERICENTER = 277.5173
MEAN_ANOMALY   = 115.5201

EPHEMERIS_TYPE = 0
CLASSIFICATION_TYPE = U
NORAD_CAT_ID   = 67311
ELEMENT_SET_NO = 999
REV_AT_EPOCH   = 282
BSTAR          = -.41145411E-2
MEAN_MOTION_DOT = -.1175683E-1
MEAN_MOTION_DDOT = 0

CCSDS_OMM_VERS = 2.0
CREATION_DATE  = 
ORIGINATOR     = 

OBJECT_NAME    = STARLINK-36485
OBJECT_ID      = 2026-002H
CENTER_NAME    = EARTH
REF_FRAME      = TEME
TIME_SYSTEM    = UTC
MEAN_ELEMENT_THEORY = SGP/SGP4

EPOCH          = 2026-01-14T06:00:02.000160
MEAN_MOTION    = 15.90949540
ECCENTRICITY   = .0002077
INCLINATION    = 42.9982
RA_OF_ASC_NODE = 280.4677
ARG_OF_PERICENTER = 275.8530
MEAN_ANOMALY   = 119.9478

EPHEMERIS_TYPE = 0
CLASSIFICATION_TYPE = U
NORAD_CAT_ID   = 67312
ELEMENT_SET_NO = 999
REV_AT_EPOCH   = 266
BSTAR          = -.41579053E-2
MEAN_MOTION_DOT = -.1189237E-1
MEAN_MOTION_DDOT = 0

CCSDS_OMM_VERS = 2.0
CREATION_DATE  = 
ORIGINATOR     = 

OBJECT_NAME    = STARLINK-36445
OBJECT_ID      = 2026-002J
CENTER_NAME    = EARTH
REF_FRAME      = TEME
TIME_SYSTEM    = UTC
MEAN_ELEMENT_THEORY = SGP/SGP4

EPOCH          = 2026-01-14T06:00:02.000160
MEAN_MOTION    = 15.90978163
ECCENTRICITY   = .00019201
INCLINATION    = 42.9978
RA_OF_ASC_NODE = 280.4635
ARG_OF_PERICENTER = 279.4855
MEAN_ANOMALY   = 117.9104

EPHEMERIS_TYPE = 0
CLASSIFICATION_TYPE = U
NORAD_CAT_ID   = 67313
ELEMENT_SET_NO = 999
REV_AT_EPOCH   = 282
BSTAR          = -.41240367E-2
MEAN_MOTION_DOT = -.1182195E-1
MEAN_MOTION_DDOT = 0

CCSDS_OMM_VERS = 2.0
CREATION_DATE  = 
ORIGINATOR     = 

OBJECT_NAME    = STARLINK-36476
OBJECT_ID      = 2026-002K
CENTER_NAME    = EARTH
REF_FRAME      = TEME
TIME_SYSTEM    = UTC
MEAN_ELEMENT_THEORY = SGP/SGP4

EPOCH          = 2026-01-14T06:00:02.000160
MEAN_MOTION    = 15.91016931
ECCENTRICITY   = .00019816
INCLINATION    = 42.9982
RA_OF_ASC_NODE = 280.4570
ARG_OF_PERICENTER = 279.1637
MEAN_ANOMALY   = 120.9718

EPHEMERIS_TYPE = 0
CLASSIFICATION_TYPE = U
NORAD_CAT_ID   = 67314
ELEMENT_SET_NO = 999
REV_AT_EPOCH   = 266
BSTAR          = -.41308781E-2
MEAN_MOTION_DOT = -.1186052E-1
MEAN_MOTION_DDOT = 0

CCSDS_OMM_VERS = 2.0
CREATION_DATE  = 
ORIGINATOR     = 

OBJECT_NAME    = STARLINK-36463
OBJECT_ID      = 2026-002L
CENTER_NAME    = EARTH
REF_FRAME      = TEME
TIME_SYSTEM    = UTC
MEAN_ELEMENT_THEORY = SGP/SGP4

EPOCH          = 2026-01-14T06:00:02.000160
MEAN_MOTION    = 15.91101884
ECCENTRICITY   = .00019353
INCLINATION    = 42.9981
RA_OF_ASC_NODE = 280.4454
ARG_OF_PERICENTER = 276.7587
MEAN_ANOMALY   = 127.7405

EPHEMERIS_TYPE = 0
CLASSIFICATION_TYPE = U
NORAD_CAT_ID   = 67315
ELEMENT_SET_NO = 999
REV_AT_EPOCH   = 272
BSTAR          = -.41494442E-2
MEAN_MOTION_DOT = -.1359772E-1
MEAN_MOTION_DDOT = .52549659E-3

CCSDS_OMM_VERS = 2.0
CREATION_DATE  = 
ORIGINATOR     = 

OBJECT_NAME    = STARLINK-36461
OBJECT_ID      = 2026-002M
CENTER_NAME    = EARTH
REF_FRAME      = TEME
TIME_SYSTEM    = UTC
MEAN_ELEMENT_THEORY = SGP/SGP4

EPOCH          = 2026-01-14T06:00:02.000160
MEAN_MOTION    = 15.91143541
ECCENTRICITY   = .00019628
INCLINATION    = 42.9980
RA_OF_ASC_NODE = 280.4380
ARG_OF_PERICENTER = 279.7136
MEAN_ANOMALY   = 127.7444

EPHEMERIS_TYPE = 0
CLASSIFICATION_TYPE = U
NORAD_CAT_ID   = 67316
ELEMENT_SET_NO = 999
REV_AT_EPOCH   = 282
BSTAR          = -.41604916E-2
MEAN_MOTION_DOT = -.1366256E-1
MEAN_MOTION_DDOT = .53030608E-3

CCSDS_OMM_VERS = 2.0
CREATION_DATE  = 
ORIGINATOR     = 

OBJECT_NAME    = STARLINK-36450
OBJECT_ID      = 2026-002N
CENTER_NAME    = EARTH
REF_FRAME      = TEME
TIME_SYSTEM    = UTC
MEAN_ELEMENT_THEORY = SGP/SGP4

EPOCH          = 2026-01-14T06:00:02.000160
MEAN_MOTION    = 15.91187155
ECCENTRICITY   = .0001944
INCLINATION    = 42.9980
RA_OF_ASC_NODE = 280.4324
ARG_OF_PERICENTER = 279.2657
MEAN_ANOMALY   = 130.4175

EPHEMERIS_TYPE = 0
CLASSIFICATION_TYPE = U
NORAD_CAT_ID   = 67317
ELEMENT_SET_NO = 999
REV_AT_EPOCH   = 282
BSTAR          = -.4178496E-2
MEAN_MOTION_DOT = -.1375153E-1
MEAN_MOTION_DDOT = .53687252E-3

CCSDS_OMM_VERS = 2.0
CREATION_DATE  = 
ORIGINATOR     = 

OBJECT_NAME    = STARLINK-36498
OBJECT_ID      = 2026-002P
CENTER_NAME    = EARTH
REF_FRAME      = TEME
TIME_SYSTEM    = UTC
MEAN_ELEMENT_THEORY = SGP/SGP4

EPOCH          = 2026-01-14T06:00:02.000160
MEAN_MOTION    = 15.91275427
ECCENTRICITY   = .00019748
INCLINATION    = 42.9979
RA_OF_ASC_NODE = 280.4203
ARG_OF_PERICENTER = 279.2159
MEAN_ANOMALY   = 135.2161

EPHEMERIS_TYPE = 0
CLASSIFICATION_TYPE = U
NORAD_CAT_ID   = 67318
ELEMENT_SET_NO = 999
REV_AT_EPOCH   = 272
BSTAR          = -.42312069E-2
MEAN_MOTION_DOT = -.1398595E-1
MEAN_MOTION_DDOT = .55422863E-3

CCSDS_OMM_VERS = 2.0
CREATION_DATE  = 
ORIGINATOR     = 

OBJECT_NAME    = STARLINK-36470
OBJECT_ID      = 2026-002Q
CENTER_NAME    = EARTH
REF_FRAME      = TEME
TIME_SYSTEM    = UTC
MEAN_ELEMENT_THEORY = SGP/SGP4

EPOCH          = 2026-01-14T06:00:02.000160
MEAN_MOTION    = 15.91231844
ECCENTRICITY   = .00019294
INCLINATION    = 42.9981
RA_OF_ASC_NODE = 280.4264
ARG_OF_PERICENTER = 279.0962
MEAN_ANOMALY   = 132.9619

EPHEMERIS_TYPE = 0
CLASSIFICATION_TYPE = U
NORAD_CAT_ID   = 67319
ELEMENT_SET_NO = 999
REV_AT_EPOCH   = 272
BSTAR          = -.42022552E-2
MEAN_MOTION_DOT = -.1386036E-1
MEAN_MOTION_DDOT = .54491557E-3

CCSDS_OMM_VERS = 2.0
CREATION_DATE  = 
ORIGINATOR     = 

OBJECT_NAME    = STARLINK-36500
OBJECT_ID      = 2026-002R
CENTER_NAME    = EARTH
REF_FRAME      = TEME
TIME_SYSTEM    = UTC
MEAN_ELEMENT_THEORY = SGP/SGP4

EPOCH          = 2026-01-14T06:00:02.000160
MEAN_MOTION    = 15.91317945
ECCENTRICITY   = .00020035
INCLINATION    = 42.9981
RA_OF_ASC_NODE = 280.4151
ARG_OF_PERICENTER = 268.5425
MEAN_ANOMALY   = 148.1759

EPHEMERIS_TYPE = 0
CLASSIFICATION_TYPE = U
NORAD_CAT_ID   = 67320
ELEMENT_SET_NO = 999
REV_AT_EPOCH   = 272
BSTAR          = -.41888169E-2
MEAN_MOTION_DOT = -.1387758E-1
MEAN_MOTION_DDOT = .54660822E-3

CCSDS_OMM_VERS = 2.0
CREATION_DATE  = 
ORIGINATOR     = 

OBJECT_NAME    = STARLINK-36462
OBJECT_ID      = 2026-002S
CENTER_NAME    = EARTH
REF_FRAME      = TEME
TIME_SYSTEM    = UTC
MEAN_ELEMENT_THEORY = SGP/SGP4

EPOCH          = 2026-01-14T06:00:02.000160
MEAN_MOTION    = 15.91434214
ECCENTRICITY   = .00018285
INCLINATION    = 42.9983
RA_OF_ASC_NODE = 280.4025
ARG_OF_PERICENTER = 278.4044
MEAN_ANOMALY   = 143.2255

EPHEMERIS_TYPE = 0
CLASSIFICATION_TYPE = U
NORAD_CAT_ID   = 67321
ELEMENT_SET_NO = 999
REV_AT_EPOCH   = 266
BSTAR          = -.4549248E-2
MEAN_MOTION_DOT = -.1514643E-1
MEAN_MOTION_DDOT = .6424647E-3

CCSDS_OMM_VERS = 2.0
CREATION_DATE  = 
ORIGINATOR     = 

OBJECT_NAME    = STARLINK-36434
OBJECT_ID      = 2026-002T
CENTER_NAME    = EARTH
REF_FRAME      = TEME
TIME_SYSTEM    = UTC
MEAN_ELEMENT_THEORY = SGP/SGP4

EPOCH          = 2026-01-14T06:00:02.000160
MEAN_MOTION    = 15.91385810
ECCENTRICITY   = .00019267
INCLINATION    = 42.9984
RA_OF_ASC_NODE = 280.4068
ARG_OF_PERICENTER = 281.3128
MEAN_ANOMALY   = 138.5707

EPHEMERIS_TYPE = 0
CLASSIFICATION_TYPE = U
NORAD_CAT_ID   = 67322
ELEMENT_SET_NO = 999
REV_AT_EPOCH   = 266
BSTAR          = -.44817749E-2
MEAN_MOTION_DOT = -.1488784E-1
MEAN_MOTION_DDOT = .6221835E-3

