STARLINK-36495          
1 67311U 26002G   26014.25002315 -.01175683  00000+0 -41145-2 0  9998
2 67311  42.9980 280.4747 0001948 277.5173 115.5201 15.90900944  2826
STARLINK-36485          
1 67312U 26002H   26014.25002315 -.01189237  00000+0 -41579-2 0  9990
2 67312  42.9982 280.4677 0002077 275.8530 119.9478 15.90949540  2664
STARLINK-36445          
1 67313U 26002J   26014.25002315 -.01182195  00000+0 -41240-2 0  9992
2 67313  42.9978 280.4635 0001920 279.4855 117.9104 15.90978163  2825
STARLINK-36476          
1 67314U 26002K   26014.25002315 -.01186052  00000+0 -41309-2 0  9995
2 67314  42.9982 280.4570 0001981 279.1637 120.9718 15.91016931  2665
STARLINK-36463          
1 67315U 26002L   26014.25002315 -.01359772  52550-3 -41494-2 0  9993
2 67315  42.9981 280.4454 0001935 276.7587 127.7405 15.91101884  2729
STARLINK-36461          
1 67316U 26002M   26014.25002315 -.01366256  53031-3 -41605-2 0  9998
2 67316  42.9980 280.4380 0001962 279.7136 127.7444 15.91143541  2820
STARLINK-36450          
1 67317U 26002N   26014.25002315 -.01375153  53687-3 -41785-2 0  9991
2 67317  42.9980 280.4324 0001944 279.2657 130.4175 15.91187155  2823
STARLINK-36498          
1 67318U 26002P   26014.25002315 -.01398595  55423-3 -42312-2 0  9994
2 67318  42.9979 280.4203 0001974 279.2159 135.2161 15.91275427  2725
STARLINK-36470          
1 67319U 26002Q   26014.25002315 -.01386036  54492-3 -42023-2 0  9996
2 67319  42.9981 280.4264 0001929 279.0962 132.9619 15.91231844  2723
STARLINK-36500          
1 67320U 26002R   26014.25002315 -.01387758  54661-3 -41888-2 0  9996
2 67320  42.9981 280.4151 0002003 268.5425 148.1759 15.91317945  2722
STARLINK-36462          
1 67321U 26002S   26014.25002315 -.01514643  64246-3 -45492-2 0  9997
2 67321  42.9983 280.4025 0001828 278.4044 143.2255 15.91434214  2665
STARLINK-36434          
1 67322U 26002T   26014.25002315 -.01488784  62218-3 -44818-2 0  9992
2 67322  42.9984 280.4068 0001926 281.3128 138.5707 15.91385810  2665
